QIANFAN-25              
1 61558U 24185G   25260.17265824  .00000410  00000+0  24279-3 0  9996
2 61558  88.9736  87.9928 0007877 199.8257 160.2620 14.05789062 57349
QIANFAN-26              
1 61559U 24185H   25260.17948853  .00000245  00000+0  23274-3 0  9997
2 61559  88.9744  89.1003 0003719 276.9615  83.1128 13.77740047 56751
QIANFAN-27              
1 61560U 24185J   25260.23318718  .00000467  00000+0  18549-3 0  9992
2 61560  88.9739  87.0926 0007035 198.3652 161.7290 14.27164162 57827
QIANFAN-28              
1 61561U 24185K   25260.18448449  .00000727  00000+0  28872-3 0  9991
2 61561  88.9755  87.0951 0006139 197.3830 162.7155 14.27754816 57827
QIANFAN-29              
1 61562U 24185L   25260.23238864  .00000179  00000+0  25899-3 0  9993
2 61562  88.9721  90.2569 0008647 308.9021  51.1359 13.50966093 56115
QIANFAN-30              
1 61563U 24185M   25260.21589796  .00000172  00000+0  25162-3 0  9991
2 61563  88.9740  89.7507 0005825 292.2838  67.7694 13.49943884 56394
QIANFAN-31              
1 61564U 24185N   25260.17624550  .00000164  00000+0  20998-3 0  9998
2 61564  88.9725  89.6939 0005375 289.5885  70.4689 13.57916129 56416
QIANFAN-32              
1 61565U 24185P   25260.23230652  .00000171  00000+0  24759-3 0  9999
2 61565  88.9784  89.8571 0008132 321.5475  38.5096 13.50696160 56366
